NMEA,$GPGSV,3,1,10,04,56,096,38,07,51,276,42,08,15,129,43,09,74,349,49,1*6A,1763493588860
NMEA,$GPGSV,3,2,10,16,37,053,40,20,11,321,32,21,12,321,35,26,05,041,36,1*61,1763493588860
NMEA,$GPGSV,3,3,10,27,17,097,34,48,00,000,38,1*68,1763493588860
NMEA,$GPGSV,1,1,02,04,56,096,30,08,15,129,34,8*65,1763493588860
NMEA,$GLGSV,1,1,04,12,59,222,43,11,57,029,48,01,78,083,30,08,26,132,42,1*7F,1763493588860
NMEA,$GAGSV,2,1,06,02,47,173,40,03,68,066,44,05,21,105,42,08,46,313,43,7*73,1763493588860
NMEA,$GAGSV,2,2,06,16,36,052,41,25,55,076,45,7*72,1763493588860
NMEA,$GAGSV,2,1,05,03,68,066,30,05,21,105,32,08,46,313,37,16,36,052,37,1*70,1763493588860
NMEA,$GAGSV,2,2,05,25,55,076,30,1*45,1763493588860
NMEA,$GBGSV,1,1,04,19,51,314,37,20,75,157,46,32,18,142,31,37,51,047,46,3*73,1763493588860
NMEA,$GBGSV,1,1,02,19,51,314,35,37,51,047,39,5*75,1763493588860
NMEA,$GNGSA,A,3,03,04,07,08,09,16,20,21,27,30,,,0.7,0.5,0.5,1*37,1763493588865
NMEA,$PSSGR,GSA,A,3,03,04,08,09,21,27,30,,,,,,0.7,0.5,0.5,1,8*41,1763493588865
NMEA,$GNGSA,A,3,75,76,,,,,,,,,,,0.7,0.5,0.5,2*36,1763493588865
NMEA,$GNGSA,A,3,02,03,05,08,13,16,25,,,,,,0.7,0.5,0.5,3*3A,1763493588865
NMEA,$PSSGR,GSA,A,3,302,303,305,308,313,316,325,,,,,,0.7,0.5,0.5,3,1*74,1763493588865
NMEA,$GNGSA,A,3,19,20,32,37,,,,,,,,,0.7,0.5,0.5,4*3C,1763493588865
NMEA,$PSSGR,GSA,A,3,219,220,232,237,,,,,,,,,0.7,0.5,0.5,4,5*45,1763493588865
NMEA,$GNVTG,,T,,M,0.0,N,0.0,K,A*3D,1763493588865
NMEA,$GNDTM,W84,,0000.000000,N,00000.000000,E,0.000,W84*41,1763493588865
NMEA,$GNRMC,191949.00,A,3725.844611,N,12209.348185,W,0.0,,181125,12.8,E,A,V*53,1763493588865
NMEA,$GNGNS,191949.00,3725.844611,N,12209.348185,W,AAAANN,23,0.5,18.3,-32.6,,,V*2F,1763493588865
NMEA,$GNGGA,191949.00,3725.844611,N,12209.348185,W,1,12,0.5,18.3,M,-32.6,M,,*7D,1763493588865
NMEA,$PSMSG,magcal=PASS,bluesky=0*00,1763493588869
NMEA,$GPGSV,3,1,11,03,22,173,30,04,56,096,39,07,51,276,44,08,15,129,45,1*66,1763493589859
NMEA,$GPGSV,3,2,11,09,74,349,47,16,37,053,40,20,11,321,31,21,12,321,36,1*66,1763493589859
NMEA,$GPGSV,3,3,11,26,05,041,34,27,17,097,35,48,00,000,38,1*5B,1763493589859
NMEA,$GPGSV,1,1,04,04,56,096,34,08,15,129,32,09,74,349,29,30,23,261,28,8*63,1763493589859
NMEA,$GLGSV,1,1,04,12,59,222,41,11,57,029,48,01,78,083,35,08,26,132,38,1*75,1763493589859
NMEA,$GAGSV,2,1,06,02,47,173,39,03,68,066,43,05,21,105,37,08,46,313,41,7*7A,1763493589859
NMEA,$GAGSV,2,2,06,16,36,052,41,25,55,076,43,7*74,1763493589859
NMEA,$GAGSV,2,1,05,03,68,066,32,05,21,105,33,08,46,313,36,16,36,052,37,1*72,1763493589859
NMEA,$GAGSV,2,2,05,25,55,076,29,1*4D,1763493589859
NMEA,$GBGSV,1,1,04,19,51,314,40,20,75,157,45,32,18,142,31,37,51,047,47,3*71,1763493589859
NMEA,$GBGSV,1,1,02,19,51,314,35,37,51,047,38,5*74,1763493589859
NMEA,$GNGSA,A,3,03,04,07,08,09,16,20,21,27,30,,,0.7,0.5,0.5,1*37,1763493589868
NMEA,$PSSGR,GSA,A,3,03,04,08,09,21,27,30,,,,,,0.7,0.5,0.5,1,8*41,1763493589868
NMEA,$GNGSA,A,3,75,76,,,,,,,,,,,0.7,0.5,0.5,2*36,1763493589868
NMEA,$GNGSA,A,3,02,03,05,08,13,16,25,,,,,,0.7,0.5,0.5,3*3A,1763493589868
NMEA,$PSSGR,GSA,A,3,302,303,305,308,316,325,,,,,,,0.7,0.5,0.5,3,1*45,1763493589868
NMEA,$GNGSA,A,3,19,20,32,37,,,,,,,,,0.7,0.5,0.5,4*3C,1763493589868
NMEA,$PSSGR,GSA,A,3,219,220,232,237,,,,,,,,,0.7,0.5,0.5,4,5*45,1763493589868
NMEA,$GNVTG,,T,,M,0.0,N,0.0,K,A*3D,1763493589868
NMEA,$GNDTM,W84,,0000.000000,N,00000.000000,E,0.000,W84*41,1763493589868
NMEA,$GNRMC,191950.00,A,3725.844559,N,12209.348110,W,0.0,,181125,12.8,E,A,V*58,1763493589868
NMEA,$GNGNS,191950.00,3725.844559,N,12209.348110,W,AAAANN,23,0.5,18.3,-32.6,,,V*24,1763493589868
NMEA,$GNGGA,191950.00,3725.844559,N,12209.348110,W,1,12,0.5,18.3,M,-32.6,M,,*76,1763493589868
NMEA,$PSMSG,magcal=PASS,bluesky=0*00,1763493589873
NMEA,$GPGSV,3,1,12,03,22,173,38,04,56,096,39,07,51,276,43,08,15,129,36,1*6E,1763493590858
NMEA,$GPGSV,3,2,12,09,74,349,43,11,05,297,29,16,37,053,41,20,11,321,32,1*64,1763493590858
NMEA,$GPGSV,3,3,12,21,12,321,34,26,05,041,47,27,17,097,43,48,00,000,41,1*64,1763493590858
NMEA,$GPGSV,2,1,06,04,56,096,35,08,15,129,31,09,74,349,38,21,12,321,37,8*69,1763493590858
NMEA,$GPGSV,2,2,06,27,17,097,29,30,23,261,28,8*60,1763493590858
NMEA,$GLGSV,1,1,04,12,59,222,43,11,57,029,44,01,78,083,41,08,26,132,42,1*75,1763493590858
NMEA,$GAGSV,2,1,08,02,47,173,41,03,68,066,41,05,21,105,42,08,46,313,39,7*74,1763493590858
NMEA,$GAGSV,2,2,08,13,14,280,29,15,08,230,30,16,36,052,41,25,55,076,41,7*70,1763493590858
NMEA,$GAGSV,2,1,05,02,47,173,33,03,68,066,35,08,46,313,39,16,36,052,35,1*7E,1763493590858
NMEA,$GAGSV,2,2,05,25,55,076,33,1*46,1763493590858
NMEA,$GBGSV,1,1,04,19,51,314,41,20,75,157,42,32,18,142,35,37,51,047,42,3*76,1763493590858
NMEA,$GBGSV,1,1,03,19,51,314,37,20,75,157,34,37,51,047,37,5*4C,1763493590858
NMEA,$GNGSA,A,3,03,04,07,08,09,16,20,21,27,30,,,0.7,0.5,0.5,1*37,1763493590866
NMEA,$PSSGR,GSA,A,3,03,04,08,09,21,27,30,,,,,,0.7,0.5,0.5,1,8*41,1763493590866
NMEA,$GNGSA,A,3,75,76,,,,,,,,,,,0.7,0.5,0.5,2*36,1763493590866
NMEA,$GNGSA,A,3,02,03,05,08,13,15,16,25,,,,,0.7,0.5,0.5,3*3E,1763493590866
NMEA,$PSSGR,GSA,A,3,302,303,305,308,316,325,,,,,,,0.7,0.5,0.5,3,1*45,1763493590866
NMEA,$GNGSA,A,3,19,20,32,37,,,,,,,,,0.7,0.5,0.5,4*3C,1763493590866
NMEA,$PSSGR,GSA,A,3,219,220,232,237,,,,,,,,,0.7,0.5,0.5,4,5*45,1763493590866
NMEA,$GNVTG,0.0,T,347.2,M,0.3,N,0.6,K,A*3A,1763493590866
NMEA,$GNDTM,W84,,0000.000000,N,00000.000000,E,0.000,W84*41,1763493590866
NMEA,$GNRMC,191951.00,A,3725.844569,N,12209.347977,W,0.3,0.0,181125,12.8,E,A,V*71,1763493590866
NMEA,$GNGNS,191951.00,3725.844569,N,12209.347977,W,AAAANN,24,0.5,18.7,-32.6,,,V*23,1763493590866
NMEA,$GNGGA,191951.00,3725.844569,N,12209.347977,W,1,12,0.5,18.7,M,-32.6,M,,*76,1763493590866
NMEA,$PSMSG,magcal=PASS,bluesky=0*00,1763493590870
NMEA,$GPGSV,3,1,09,03,22,173,40,04,56,096,43,07,51,276,42,08,15,129,39,1*68,1763493591863
NMEA,$GPGSV,3,2,09,09,74,349,43,16,37,053,43,26,05,041,48,27,17,097,32,1*69,1763493591863
NMEA,$GPGSV,3,3,09,48,00,000,43,1*56,1763493591863
NMEA,$GPGSV,2,1,06,03,22,173,30,04,56,096,32,08,15,129,34,09,74,349,39,8*6B,1763493591863
NMEA,$GPGSV,2,2,06,21,12,321,32,27,17,097,36,8*62,1763493591863
NMEA,$GLGSV,1,1,04,12,59,222,42,11,57,029,44,01,78,083,40,08,26,132,44,1*73,1763493591863
NMEA,$GAGSV,2,1,08,02,47,173,43,03,68,066,40,05,21,105,38,08,46,313,37,7*74,1763493591863
NMEA,$GAGSV,2,2,08,13,14,280,31,15,08,230,31,16,36,052,43,25,55,076,40,7*7B,1763493591863
NMEA,$GAGSV,2,1,06,02,47,173,29,03,68,066,35,05,21,105,32,08,46,313,30,1*7F,1763493591863
NMEA,$GAGSV,2,2,06,16,36,052,37,25,55,076,36,1*71,1763493591863
NMEA,$GBGSV,1,1,04,19,51,314,42,20,75,157,43,32,18,142,37,37,51,047,41,3*75,1763493591863
NMEA,$GBGSV,1,1,03,20,75,157,30,32,18,142,29,37,51,047,37,5*42,1763493591863
NMEA,$GNGSA,A,3,03,04,07,08,09,16,20,21,27,30,,,0.7,0.5,0.5,1*37,1763493591879
NMEA,$PSSGR,GSA,A,3,03,04,08,09,21,27,30,,,,,,0.7,0.5,0.5,1,8*41,1763493591879
NMEA,$GNGSA,A,3,75,76,,,,,,,,,,,0.7,0.5,0.5,2*36,1763493591879
NMEA,$GNGSA,A,3,02,03,05,08,13,15,16,25,,,,,0.7,0.5,0.5,3*3E,1763493591879
NMEA,$PSSGR,GSA,A,3,302,303,305,308,316,325,,,,,,,0.7,0.5,0.5,3,1*45,1763493591879
NMEA,$GNGSA,A,3,19,20,32,37,,,,,,,,,0.7,0.5,0.5,4*3C,1763493591879
NMEA,$PSSGR,GSA,A,3,219,220,232,237,,,,,,,,,0.7,0.5,0.5,4,5*45,1763493591879
NMEA,$GNVTG,,T,,M,0.0,N,0.0,K,A*3D,1763493591879
NMEA,$GNDTM,W84,,0000.000000,N,00000.000000,E,0.000,W84*41,1763493591879
NMEA,$GNRMC,191952.00,A,3725.844446,N,12209.347909,W,0.0,,181125,12.8,E,A,V*5A,1763493591879
NMEA,$GNGNS,191952.00,3725.844446,N,12209.347909,W,AAAANN,24,0.5,18.5,-32.6,,,V*27,1763493591879
NMEA,$GNGGA,191952.00,3725.844446,N,12209.347909,W,1,12,0.5,18.5,M,-32.6,M,,*72,1763493591879
NMEA,$PSMSG,magcal=PASS,bluesky=0*00,1763493591886
NMEA,$GPGSV,3,1,09,03,22,173,41,04,56,096,43,07,51,276,41,08,15,129,38,1*6B,1763493592859
NMEA,$GPGSV,3,2,09,09,74,349,44,16,37,053,43,26,05,041,48,27,17,097,33,1*6F,1763493592859
NMEA,$GPGSV,3,3,09,48,00,000,43,1*56,1763493592859
NMEA,$GPGSV,2,1,06,03,22,173,28,04,56,096,32,08,15,129,35,09,74,349,39,8*63,1763493592859
NMEA,$GPGSV,2,2,06,21,12,321,31,27,17,097,35,8*62,1763493592859
NMEA,$GLGSV,1,1,04,12,59,222,40,11,57,029,41,01,78,083,40,08,26,132,43,1*73,1763493592859
NMEA,$GAGSV,2,1,08,02,47,173,43,03,68,066,40,05,21,105,37,08,46,313,35,7*79,1763493592859
NMEA,$GAGSV,2,2,08,13,14,280,30,15,08,230,28,16,36,052,43,25,55,076,40,7*72,1763493592859
NMEA,$GAGSV,2,1,06,02,47,173,30,03,68,066,35,05,21,105,32,08,46,313,33,1*74,1763493592859
NMEA,$GAGSV,2,2,06,16,36,052,38,25,55,076,36,1*7E,1763493592859
NMEA,$GBGSV,1,1,04,19,51,314,41,20,75,157,43,32,18,142,37,37,51,047,40,3*77,1763493592859
NMEA,$GBGSV,1,1,03,19,51,314,29,20,75,157,31,37,51,047,35,5*44,1763493592859
NMEA,$GNGSA,A,3,03,04,07,08,09,16,20,21,27,30,,,0.7,0.5,0.5,1*37,1763493592867
NMEA,$PSSGR,GSA,A,3,03,04,08,09,21,27,30,,,,,,0.7,0.5,0.5,1,8*41,1763493592867
NMEA,$GNGSA,A,3,75,76,,,,,,,,,,,0.7,0.5,0.5,2*36,1763493592867
NMEA,$GNGSA,A,3,02,03,05,08,13,15,16,25,,,,,0.7,0.5,0.5,3*3E,1763493592867
NMEA,$PSSGR,GSA,A,3,302,303,305,308,316,325,,,,,,,0.7,0.5,0.5,3,1*45,1763493592867
NMEA,$GNGSA,A,3,19,20,32,37,,,,,,,,,0.7,0.5,0.5,4*3C,1763493592867
NMEA,$PSSGR,GSA,A,3,219,220,232,237,,,,,,,,,0.7,0.5,0.5,4,5*45,1763493592867
NMEA,$GNVTG,,T,,M,0.0,N,0.0,K,A*3D,1763493592867
NMEA,$GNDTM,W84,,0000.000000,N,00000.000000,E,0.000,W84*41,1763493592867
NMEA,$GNRMC,191953.00,A,3725.844326,N,12209.347882,W,0.0,,181125,12.8,E,A,V*58,1763493592867
NMEA,$GNGNS,191953.00,3725.844326,N,12209.347882,W,AAAANN,24,0.5,18.3,-32.6,,,V*23,1763493592867
NMEA,$GNGGA,191953.00,3725.844326,N,12209.347882,W,1,12,0.5,18.3,M,-32.6,M,,*76,1763493592867
NMEA,$PSMSG,magcal=PASS,bluesky=0*00,1763493592872
NMEA,$GPGSV,3,1,11,03,22,173,42,04,56,096,44,07,51,276,43,08,15,129,39,1*65,1763493593861
NMEA,$GPGSV,3,2,11,09,74,349,47,16,37,053,46,20,11,321,30,21,12,321,33,1*64,1763493593861
NMEA,$GPGSV,3,3,11,26,05,041,45,27,17,097,39,48,00,000,43,1*5D,1763493593861
NMEA,$GPGSV,2,1,05,04,56,096,39,09,74,349,40,21,12,321,34,27,17,097,39,8*69,1763493593861
NMEA,$GPGSV,2,2,05,30,23,261,28,8*55,1763493593861
NMEA,$GLGSV,1,1,04,12,59,222,42,11,57,029,43,01,78,083,36,08,26,132,42,1*73,1763493593861
NMEA,$GAGSV,2,1,06,02,47,173,40,03,68,066,42,08,46,313,41,15,08,230,28,7*74,1763493593861
NMEA,$GAGSV,2,2,06,16,36,052,42,25,55,076,42,7*76,1763493593861
NMEA,$GAGSV,2,1,06,02,47,173,35,03,68,066,30,05,21,105,34,08,46,313,36,1*77,1763493593861
NMEA,$GAGSV,2,2,06,16,36,052,39,25,55,076,40,1*7E,1763493593861
NMEA,$GBGSV,1,1,04,19,51,314,38,20,75,157,42,32,18,142,37,37,51,047,43,3*7B,1763493593861
NMEA,$GBGSV,1,1,02,19,51,314,37,20,75,157,34,5*7A,1763493593861
NMEA,$GNGSA,A,3,03,04,07,08,09,16,20,21,27,30,,,0.7,0.5,0.5,1*37,1763493593874
NMEA,$PSSGR,GSA,A,3,03,04,08,09,21,27,30,,,,,,0.7,0.5,0.5,1,8*41,1763493593874
NMEA,$GNGSA,A,3,75,76,,,,,,,,,,,0.7,0.5,0.5,2*36,1763493593874
NMEA,$GNGSA,A,3,02,03,05,08,13,15,16,25,,,,,0.7,0.5,0.5,3*3E,1763493593874
NMEA,$PSSGR,GSA,A,3,302,303,305,308,316,325,,,,,,,0.7,0.5,0.5,3,1*45,1763493593874
NMEA,$GNGSA,A,3,19,20,32,37,,,,,,,,,0.7,0.5,0.5,4*3C,1763493593874
NMEA,$PSSGR,GSA,A,3,219,220,232,237,,,,,,,,,0.7,0.5,0.5,4,5*45,1763493593874
NMEA,$GNVTG,,T,,M,0.0,N,0.0,K,A*3D,1763493593874
NMEA,$GNDTM,W84,,0000.000000,N,00000.000000,E,0.000,W84*41,1763493593874
NMEA,$GNRMC,191954.00,A,3725.844243,N,12209.347816,W,0.0,,181125,12.8,E,A,V*50,1763493593874
NMEA,$GNGNS,191954.00,3725.844243,N,12209.347816,W,AAAANN,24,0.5,18.7,-32.6,,,V*2F,1763493593874
NMEA,$GNGGA,191954.00,3725.844243,N,12209.347816,W,1,12,0.5,18.7,M,-32.6,M,,*7A,1763493593874
NMEA,$PSMSG,magcal=PASS,bluesky=0*00,1763493593881
NMEA,$GPGSV,3,1,11,03,22,173,42,04,56,096,44,07,51,276,43,08,15,129,38,1*64,1763493594863
NMEA,$GPGSV,3,2,11,09,74,349,47,16,37,053,46,20,11,321,28,21,12,321,31,1*6F,1763493594863
NMEA,$GPGSV,3,3,11,26,05,041,44,27,17,097,38,48,00,000,43,1*5D,1763493594863
NMEA,$GPGSV,1,1,04,04,56,096,37,09,74,349,36,21,12,321,29,27,17,097,36,8*67,1763493594863
NMEA,$GLGSV,1,1,04,12,59,222,42,11,57,029,44,01,78,083,36,08,26,132,40,1*76,1763493594863
NMEA,$GAGSV,2,1,06,02,47,173,40,03,68,066,42,05,21,105,31,08,46,313,42,7*70,1763493594863
NMEA,$GAGSV,2,2,06,16,36,052,42,25,55,076,40,7*74,1763493594863
NMEA,$GAGSV,2,1,05,02,47,173,32,05,21,105,31,08,46,313,32,16,36,052,36,1*7C,1763493594863
NMEA,$GAGSV,2,2,05,25,55,076,36,1*43,1763493594863
NMEA,$GBGSV,1,1,04,19,51,314,39,20,75,157,41,32,18,142,38,37,51,047,43,3*76,1763493594863
NMEA,$GBGSV,1,1,03,19,51,314,34,20,75,157,33,37,51,047,29,5*47,1763493594863
NMEA,$GNGSA,A,3,03,04,07,08,09,16,20,21,27,30,,,0.7,0.5,0.5,1*37,1763493594874
NMEA,$PSSGR,GSA,A,3,03,04,08,09,21,27,30,,,,,,0.7,0.5,0.5,1,8*41,1763493594874
NMEA,$GNGSA,A,3,75,76,,,,,,,,,,,0.7,0.5,0.5,2*36,1763493594874
NMEA,$GNGSA,A,3,02,03,05,08,13,15,16,25,,,,,0.7,0.5,0.5,3*3E,1763493594874
NMEA,$PSSGR,GSA,A,3,302,303,305,308,316,325,,,,,,,0.7,0.5,0.5,3,1*45,1763493594874
NMEA,$GNGSA,A,3,19,20,32,37,,,,,,,,,0.7,0.5,0.5,4*3C,1763493594874
NMEA,$PSSGR,GSA,A,3,219,220,232,237,,,,,,,,,0.7,0.5,0.5,4,5*45,1763493594874
NMEA,$GNVTG,,T,,M,0.0,N,0.0,K,A*3D,1763493594874
NMEA,$GNDTM,W84,,0000.000000,N,00000.000000,E,0.000,W84*41,1763493594874
NMEA,$GNRMC,191955.00,A,3725.844270,N,12209.347811,W,0.0,,181125,12.8,E,A,V*56,1763493594874
NMEA,$GNGNS,191955.00,3725.844270,N,12209.347811,W,AAAANN,24,0.5,18.8,-32.6,,,V*26,1763493594874
NMEA,$GNGGA,191955.00,3725.844270,N,12209.347811,W,1,12,0.5,18.8,M,-32.6,M,,*73,1763493594874
NMEA,$PSMSG,magcal=PASS,bluesky=0*00,1763493594878
NMEA,$GPGSV,3,1,09,03,22,173,38,04,56,096,43,07,51,276,42,08,15,129,36,1*68,1763493595857
NMEA,$GPGSV,3,2,09,09,74,349,46,16,37,053,46,26,05,041,47,27,17,097,38,1*6C,1763493595857
NMEA,$GPGSV,3,3,09,48,00,000,38,1*5A,1763493595857
NMEA,$GPGSV,1,1,04,04,56,096,33,09,74,349,34,21,12,321,31,27,17,097,34,8*6A,1763493595857
NMEA,$GLGSV,1,1,04,12,59,222,39,11,57,029,44,01,78,083,34,08,26,132,40,1*78,1763493595857
NMEA,$GAGSV,2,1,06,02,47,173,37,03,68,066,41,05,21,105,29,08,46,313,39,7*76,1763493595857
NMEA,$GAGSV,2,2,06,16,36,052,43,25,55,076,42,7*77,1763493595857
NMEA,$GAGSV,2,1,05,02,47,173,31,05,21,105,28,08,46,313,32,16,36,052,35,1*74,1763493595857
NMEA,$GAGSV,2,2,05,25,55,076,35,1*40,1763493595857
NMEA,$GBGSV,1,1,04,19,51,314,35,20,75,157,41,32,18,142,36,37,51,047,43,3*74,1763493595857
NMEA,$GBGSV,1,1,02,19,51,314,34,20,75,157,32,5*7F,1763493595857
NMEA,$GNGSA,A,3,03,04,07,08,09,16,20,21,27,30,,,0.7,0.5,0.5,1*37,1763493595861
NMEA,$PSSGR,GSA,A,3,03,04,08,09,21,27,30,,,,,,0.7,0.5,0.5,1,8*41,1763493595861
NMEA,$GNGSA,A,3,75,76,,,,,,,,,,,0.7,0.5,0.5,2*36,1763493595861
NMEA,$GNGSA,A,3,02,03,05,08,13,15,16,25,,,,,0.7,0.5,0.5,3*3E,1763493595861
NMEA,$PSSGR,GSA,A,3,302,303,305,308,316,325,,,,,,,0.7,0.5,0.5,3,1*45,1763493595861
NMEA,$GNGSA,A,3,19,20,32,37,,,,,,,,,0.7,0.5,0.5,4*3C,1763493595861
NMEA,$PSSGR,GSA,A,3,219,220,232,237,,,,,,,,,0.7,0.5,0.5,4,5*45,1763493595861
NMEA,$GNVTG,,T,,M,0.0,N,0.0,K,A*3D,1763493595861
NMEA,$GNDTM,W84,,0000.000000,N,00000.000000,E,0.000,W84*41,1763493595861
NMEA,$GNRMC,191956.00,A,3725.844293,N,12209.347768,W,0.0,,181125,12.8,E,A,V*59,1763493595861
NMEA,$GNGNS,191956.00,3725.844293,N,12209.347768,W,AAAANN,24,0.5,18.9,-32.6,,,V*28,1763493595861
NMEA,$GNGGA,191956.00,3725.844293,N,12209.347768,W,1,12,0.5,18.9,M,-32.6,M,,*7D,1763493595861
NMEA,$PSMSG,magcal=PASS,bluesky=0*00,1763493595862
NMEA,$GPGSV,3,1,10,03,22,173,39,04,56,096,45,07,51,276,42,08,15,129,35,1*64,1763493596856
NMEA,$GPGSV,3,2,10,09,74,349,47,16,37,053,46,20,11,321,28,26,05,041,46,1*6A,1763493596856
NMEA,$GPGSV,3,3,10,27,17,097,41,48,00,000,40,1*65,1763493596856
NMEA,$GPGSV,2,1,05,04,56,096,39,09,74,349,38,21,12,321,34,27,17,097,38,8*67,1763493596856
NMEA,$GPGSV,2,2,05,30,23,261,28,8*55,1763493596856
NMEA,$GLGSV,1,1,04,12,59,222,41,11,57,029,44,01,78,083,32,08,26,132,39,1*7F,1763493596856
NMEA,$GAGSV,2,1,08,02,47,173,36,03,68,066,41,05,21,105,33,08,46,313,39,7*72,1763493596856
NMEA,$GAGSV,2,2,08,13,14,280,28,15,08,230,30,16,36,052,43,25,55,076,42,7*70,1763493596856
NMEA,$GAGSV,2,1,05,02,47,173,35,05,21,105,33,08,46,313,37,16,36,052,38,1*72,1763493596856
NMEA,$GAGSV,2,2,05,25,55,076,39,1*4C,1763493596856
NMEA,$GBGSV,2,1,05,19,51,314,34,20,75,157,40,32,18,142,38,36,15,230,28,3*76,1763493596856
NMEA,$GBGSV,2,2,05,37,51,047,43,3*45,1763493596856
NMEA,$GBGSV,1,1,03,19,51,314,38,20,75,157,34,37,51,047,32,5*46,1763493596856
NMEA,$GNGSA,A,3,03,04,07,08,09,16,21,27,30,,,,0.7,0.5,0.6,1*36,1763493596866
NMEA,$PSSGR,GSA,A,3,03,04,08,09,21,27,30,,,,,,0.7,0.5,0.6,1,8*42,1763493596866
NMEA,$GNGSA,A,3,75,76,,,,,,,,,,,0.7,0.5,0.6,2*35,1763493596866
NMEA,$GNGSA,A,3,02,03,05,08,13,15,16,25,,,,,0.7,0.5,0.6,3*3D,1763493596866
NMEA,$PSSGR,GSA,A,3,302,303,305,308,316,325,,,,,,,0.7,0.5,0.6,3,1*46,1763493596866
NMEA,$GNGSA,A,3,19,20,32,36,37,,,,,,,,0.7,0.5,0.6,4*3A,1763493596866
NMEA,$PSSGR,GSA,A,3,219,220,232,237,,,,,,,,,0.7,0.5,0.6,4,5*46,1763493596866
NMEA,$GNVTG,,T,,M,0.0,N,0.0,K,A*3D,1763493596866
NMEA,$GNDTM,W84,,0000.000000,N,00000.000000,E,0.000,W84*41,1763493596866
NMEA,$GNRMC,191957.00,A,3725.844320,N,12209.347743,W,0.0,,181125,12.8,E,A,V*58,1763493596866
NMEA,$GNGNS,191957.00,3725.844320,N,12209.347743,W,AAAANN,24,0.5,19.1,-32.6,,,V*20,1763493596866
NMEA,$GNGGA,191957.00,3725.844320,N,12209.347743,W,1,12,0.5,19.1,M,-32.6,M,,*75,1763493596866
NMEA,$PSMSG,magcal=PASS,bluesky=0*00,1763493596866
NMEA,$GPGSV,3,1,10,03,22,173,39,04,56,096,45,07,51,276,42,08,15,129,36,1*67,1763493597854
NMEA,$GPGSV,3,2,10,09,74,349,47,16,37,053,45,20,11,321,30,26,05,041,47,1*61,1763493597854
NMEA,$GPGSV,3,3,10,27,17,097,40,48,00,000,40,1*64,1763493597854
NMEA,$GPGSV,2,1,05,04,56,096,39,08,15,129,29,09,74,349,38,21,12,321,34,8*6C,1763493597854
NMEA,$GPGSV,2,2,05,27,17,097,39,8*5F,1763493597854
NMEA,$GLGSV,1,1,04,12,59,222,40,11,57,029,44,01,78,083,34,08,26,132,39,1*78,1763493597854
NMEA,$GAGSV,2,1,07,02,47,173,38,03,68,066,41,05,21,105,32,08,46,313,39,7*72,1763493597854
NMEA,$GAGSV,2,2,07,15,08,230,29,16,36,052,44,25,55,076,41,7*44,1763493597854
NMEA,$GAGSV,2,1,06,02,47,173,36,03,68,066,29,05,21,105,33,08,46,313,37,1*7A,1763493597854
NMEA,$GAGSV,2,2,06,16,36,052,39,25,55,076,40,1*7E,1763493597854
NMEA,$GBGSV,1,1,04,19,51,314,36,20,75,157,41,32,18,142,38,37,51,047,44,3*7E,1763493597854
NMEA,$GBGSV,1,1,03,19,51,314,38,20,75,157,34,37,51,047,33,5*47,1763493597854
NMEA,$GNGSA,A,3,03,04,07,08,09,16,21,27,30,,,,0.7,0.5,0.6,1*36,1763493597859
NMEA,$PSSGR,GSA,A,3,03,04,08,09,21,27,30,,,,,,0.7,0.5,0.6,1,8*42,1763493597859
NMEA,$GNGSA,A,3,75,76,,,,,,,,,,,0.7,0.5,0.6,2*35,1763493597859
NMEA,$GNGSA,A,3,02,03,05,08,13,15,16,25,,,,,0.7,0.5,0.6,3*3D,1763493597859
NMEA,$PSSGR,GSA,A,3,302,303,305,308,316,325,,,,,,,0.7,0.5,0.6,3,1*46,1763493597859
NMEA,$GNGSA,A,3,19,20,32,36,37,,,,,,,,0.7,0.5,0.6,4*3A,1763493597859
NMEA,$PSSGR,GSA,A,3,219,220,237,,,,,,,,,,0.7,0.5,0.6,4,5*75,1763493597859
NMEA,$GNVTG,,T,,M,0.0,N,0.0,K,A*3D,1763493597859
NMEA,$GNDTM,W84,,0000.000000,N,00000.000000,E,0.000,W84*41,1763493597859
NMEA,$GNRMC,191958.00,A,3725.844279,N,12209.347723,W,0.0,,181125,12.8,E,A,V*5C,1763493597859
NMEA,$GNGNS,191958.00,3725.844279,N,12209.347723,W,AAAANN,24,0.5,19.1,-32.6,,,V*24,1763493597859
NMEA,$GNGGA,191958.00,3725.844279,N,12209.347723,W,1,12,0.5,19.1,M,-32.6,M,,*71,1763493597859
NMEA,$PSMSG,magcal=PASS,bluesky=0*00,1763493597862
NMEA,$GPGSV,3,1,10,03,22,173,40,04,56,096,45,07,51,276,43,08,15,129,36,1*68,1763493598855
NMEA,$GPGSV,3,2,10,09,74,349,47,16,37,053,46,20,11,321,29,26,05,041,47,1*6A,1763493598855
NMEA,$GPGSV,3,3,10,27,17,097,42,48,00,000,40,1*66,1763493598855
NMEA,$GPGSV,1,1,04,04,56,096,39,09,74,349,38,21,12,321,35,27,17,097,39,8*65,1763493598855
NMEA,$GLGSV,1,1,04,12,59,222,40,11,57,029,44,01,78,083,33,08,26,132,39,1*7F,1763493598855
NMEA,$GAGSV,2,1,07,02,47,173,36,03,68,066,41,05,21,105,32,08,46,313,40,7*72,1763493598855
NMEA,$GAGSV,2,2,07,15,08,230,29,16,36,052,44,25,55,076,41,7*44,1763493598855
NMEA,$GAGSV,2,1,06,02,47,173,35,03,68,066,29,05,21,105,33,08,46,313,37,1*79,1763493598855
NMEA,$GAGSV,2,2,06,16,36,052,39,25,55,076,39,1*70,1763493598855
NMEA,$GBGSV,1,1,04,19,51,314,35,20,75,157,40,32,18,142,37,37,51,047,44,3*73,1763493598855
NMEA,$GBGSV,1,1,03,19,51,314,39,20,75,157,35,37,51,047,33,5*47,1763493598855
NMEA,$GNGSA,A,3,03,04,07,08,09,16,21,27,30,,,,0.8,0.5,0.6,1*39,1763493598858
NMEA,$PSSGR,GSA,A,3,04,08,09,21,27,30,,,,,,,0.8,0.5,0.6,1,8*4E,1763493598858
NMEA,$GNGSA,A,3,75,76,,,,,,,,,,,0.8,0.5,0.6,2*3A,1763493598858
NMEA,$GNGSA,A,3,02,03,05,08,13,15,16,25,,,,,0.8,0.5,0.6,3*32,1763493598858
NMEA,$PSSGR,GSA,A,3,302,303,305,308,316,325,,,,,,,0.8,0.5,0.6,3,1*49,1763493598858
NMEA,$GNGSA,A,3,19,20,32,36,37,,,,,,,,0.8,0.5,0.6,4*35,1763493598858
NMEA,$PSSGR,GSA,A,3,219,220,237,,,,,,,,,,0.8,0.5,0.6,4,5*7A,1763493598858
NMEA,$GNVTG,,T,,M,0.0,N,0.0,K,A*3D,1763493598858
NMEA,$GNDTM,W84,,0000.000000,N,00000.000000,E,0.000,W84*41,1763493598858
NMEA,$GNRMC,191959.00,A,3725.844247,N,12209.347683,W,0.0,,181125,12.8,E,A,V*5B,1763493598858
NMEA,$GNGNS,191959.00,3725.844247,N,12209.347683,W,AAAANN,24,0.5,19.2,-32.6,,,V*20,1763493598858
NMEA,$GNGGA,191959.00,3725.844247,N,12209.347683,W,1,12,0.5,19.2,M,-32.6,M,,*75,1763493598858
NMEA,$PSMSG,magcal=PASS,bluesky=0*00,1763493598862
NMEA,$GPGSV,3,1,10,03,22,173,44,04,56,096,43,07,51,276,41,08,15,129,36,1*68,1763493599855
NMEA,$GPGSV,3,2,10,09,74,349,45,16,37,053,44,21,12,321,29,26,05,041,46,1*69,1763493599855
NMEA,$GPGSV,3,3,10,27,17,097,33,48,00,000,43,1*63,1763493599855
NMEA,$GPGSV,2,1,06,03,22,173,28,04,56,096,37,08,15,129,34,09,74,349,34,8*6A,1763493599855
NMEA,$GPGSV,2,2,06,21,12,321,33,27,17,097,33,8*66,1763493599855
NMEA,$GLGSV,1,1,04,12,59,222,41,11,57,029,43,01,78,083,28,08,26,132,40,1*7D,1763493599855
NMEA,$GAGSV,2,1,05,02,47,173,44,03,68,066,37,08,46,313,42,16,36,052,42,7*76,1763493599855
NMEA,$GAGSV,2,2,05,25,55,076,38,7*4B,1763493599855
NMEA,$GAGSV,1,1,04,05,21,105,32,08,46,313,37,16,36,052,35,25,55,076,36,1*7D,1763493599855
NMEA,$GBGSV,2,1,05,19,51,314,37,20,75,157,43,32,18,142,38,36,15,230,29,3*77,1763493599855
NMEA,$GBGSV,2,2,05,37,51,047,40,3*46,1763493599855
NMEA,$GBGSV,1,1,04,19,51,314,37,20,75,157,31,32,18,142,28,37,51,047,35,5*79,1763493599855
NMEA,$GNGSA,A,3,03,04,07,08,09,16,21,27,30,,,,0.7,0.5,0.6,1*36,1763493599863
NMEA,$PSSGR,GSA,A,3,03,04,08,09,21,27,30,,,,,,0.7,0.5,0.6,1,8*42,1763493599863
NMEA,$GNGSA,A,3,75,76,,,,,,,,,,,0.7,0.5,0.6,2*35,1763493599863
NMEA,$GNGSA,A,3,02,03,05,08,13,15,16,25,,,,,0.7,0.5,0.6,3*3D,1763493599863
NMEA,$PSSGR,GSA,A,3,302,303,305,308,316,325,,,,,,,0.7,0.5,0.6,3,1*46,1763493599863
NMEA,$GNGSA,A,3,19,20,32,36,37,,,,,,,,0.7,0.5,0.6,4*3A,1763493599863
NMEA,$PSSGR,GSA,A,3,219,220,232,237,,,,,,,,,0.7,0.5,0.6,4,5*46,1763493599863
NMEA,$GNVTG,0.0,T,347.2,M,1.0,N,1.9,K,A*36,1763493599863
NMEA,$GNDTM,W84,,0000.000000,N,00000.000000,E,0.000,W84*41,1763493599863
NMEA,$GNRMC,192000.00,A,3725.844354,N,12209.347971,W,1.0,0.0,181125,12.8,E,A,V*73,1763493599863
NMEA,$GNGNS,192000.00,3725.844354,N,12209.347971,W,AAAANN,24,0.5,19.5,-32.6,,,V*20,1763493599863
NMEA,$GNGGA,192000.00,3725.844354,N,12209.347971,W,1,12,0.5,19.5,M,-32.6,M,,*75,1763493599863
NMEA,$PSMSG,magcal=PASS,bluesky=0*00,1763493599872
NMEA,$GPGSV,3,1,10,03,22,173,39,04,56,096,36,07,51,276,40,08,15,129,42,1*62,1763493600857
NMEA,$GPGSV,3,2,10,09,74,349,43,16,37,053,43,26,05,041,45,27,17,097,34,1*6A,1763493600857
NMEA,$GPGSV,3,3,10,30,23,261,28,48,00,000,42,1*62,1763493600857
NMEA,$GPGSV,2,1,06,03,22,173,31,08,15,129,34,09,74,349,36,21,12,321,33,8*6C,1763493600857
NMEA,$GPGSV,2,2,06,27,17,097,29,30,23,261,30,8*69,1763493600857
NMEA,$GLGSV,1,1,04,12,59,222,35,11,57,029,39,01,78,083,39,08,26,132,42,1*71,1763493600857
NMEA,$GAGSV,2,1,06,02,47,173,42,03,68,066,37,05,21,105,38,08,46,313,34,7*78,1763493600857
NMEA,$GAGSV,2,2,06,16,36,052,41,25,55,076,38,7*78,1763493600857
NMEA,$GAGSV,1,1,04,03,68,066,35,05,21,105,30,08,46,313,32,16,36,052,35,1*72,1763493600857
NMEA,$GBGSV,1,1,04,19,51,314,43,20,75,157,37,32,18,142,33,37,51,047,41,3*73,1763493600857
NMEA,$GBGSV,1,1,04,19,51,314,34,20,75,157,31,32,18,142,29,37,51,047,32,5*7C,1763493600857
NMEA,$GNGSA,A,3,03,04,07,08,09,16,21,27,30,,,,0.7,0.5,0.6,1*36,1763493600861
NMEA,$PSSGR,GSA,A,3,03,04,08,09,21,27,30,,,,,,0.7,0.5,0.6,1,8*42,1763493600861
NMEA,$GNGSA,A,3,75,76,,,,,,,,,,,0.7,0.5,0.6,2*35,1763493600861
NMEA,$GNGSA,A,3,02,03,05,08,13,15,16,25,,,,,0.7,0.5,0.6,3*3D,1763493600861
NMEA,$PSSGR,GSA,A,3,302,303,305,308,316,325,,,,,,,0.7,0.5,0.6,3,1*46,1763493600861
NMEA,$GNGSA,A,3,19,20,32,36,37,,,,,,,,0.7,0.5,0.6,4*3A,1763493600861
NMEA,$PSSGR,GSA,A,3,219,220,232,237,,,,,,,,,0.7,0.5,0.6,4,5*46,1763493600861
NMEA,$GNVTG,305.5,T,292.7,M,2.4,N,4.4,K,A*36,1763493600861
NMEA,$GNDTM,W84,,0000.000000,N,00000.000000,E,0.000,W84*41,1763493600861
NMEA,$GNRMC,192001.00,A,3725.844705,N,12209.348575,W,2.4,305.5,181125,12.8,E,A,V*71,1763493600861
NMEA,$GNGNS,192001.00,3725.844705,N,12209.348575,W,AAAANN,24,0.5,19.3,-32.6,,,V*20,1763493600861
NMEA,$GNGGA,192001.00,3725.844705,N,12209.348575,W,1,12,0.5,19.3,M,-32.6,M,,*75,1763493600861
NMEA,$PSMSG,magcal=PASS,bluesky=0*00,1763493600867
NMEA,$GPGSV,3,1,11,03,22,173,40,04,56,096,41,07,51,276,39,08,15,129,44,1*65,1763493601857
NMEA,$GPGSV,3,2,11,09,74,349,40,16,37,053,44,20,11,321,29,21,12,321,33,1*69,1763493601857
NMEA,$GPGSV,3,3,11,26,05,041,43,27,17,097,34,48,00,000,40,1*55,1763493601857
NMEA,$GPGSV,1,1,04,03,22,173,31,08,15,129,35,09,74,349,39,21,12,321,35,8*65,1763493601857
NMEA,$GLGSV,1,1,04,12,59,222,35,11,57,029,38,01,78,083,40,08,26,132,47,1*7B,1763493601857
NMEA,$GAGSV,2,1,06,02,47,173,42,03,68,066,39,05,21,105,37,08,46,313,29,7*75,1763493601857
NMEA,$GAGSV,2,2,06,16,36,052,43,25,55,076,39,7*7B,1763493601857
NMEA,$GAGSV,2,1,06,02,47,173,31,03,68,066,37,05,21,105,30,08,46,313,33,1*75,1763493601857
NMEA,$GAGSV,2,2,06,15,08,230,30,16,36,052,36,1*7D,1763493601857
NMEA,$GBGSV,1,1,04,19,51,314,44,20,75,157,40,32,18,142,32,37,51,047,41,3*75,1763493601857
NMEA,$GBGSV,1,1,03,19,51,314,32,20,75,157,32,37,51,047,37,5*4F,1763493601857
NMEA,$GNGSA,A,3,03,04,07,08,09,16,21,27,30,,,,0.7,0.5,0.6,1*36,1763493601864
NMEA,$PSSGR,GSA,A,3,03,04,08,09,21,27,30,,,,,,0.7,0.5,0.6,1,8*42,1763493601864
NMEA,$GNGSA,A,3,75,76,,,,,,,,,,,0.7,0.5,0.6,2*35,1763493601864
NMEA,$GNGSA,A,3,02,03,05,08,13,15,16,25,,,,,0.7,0.5,0.6,3*3D,1763493601864
NMEA,$PSSGR,GSA,A,3,302,303,305,308,315,316,325,,,,,,0.7,0.5,0.6,3,1*71,1763493601864
NMEA,$GNGSA,A,3,19,20,32,36,37,,,,,,,,0.7,0.5,0.6,4*3A,1763493601864
NMEA,$PSSGR,GSA,A,3,219,220,232,237,,,,,,,,,0.7,0.5,0.6,4,5*46,1763493601864
NMEA,$GNVTG,311.8,T,299.0,M,2.3,N,4.2,K,A*33,1763493601864
NMEA,$GNDTM,W84,,0000.000000,N,00000.000000,E,0.000,W84*41,1763493601864
NMEA,$GNRMC,192002.00,A,3725.845187,N,12209.349191,W,2.3,311.8,181125,12.8,E,A,V*7F,1763493601864
NMEA,$GNGNS,192002.00,3725.845187,N,12209.349191,W,AAAANN,24,0.5,19.2,-32.6,,,V*20,1763493601864
NMEA,$GNGGA,192002.00,3725.845187,N,12209.349191,W,1,12,0.5,19.2,M,-32.6,M,,*75,1763493601864
NMEA,$PSMSG,magcal=PASS,bluesky=0*00,1763493601868
NMEA,$GPGSV,3,1,12,03,22,173,41,04,56,096,45,07,51,276,41,08,15,129,41,1*69,1763493602856
NMEA,$GPGSV,3,2,12,09,74,349,40,16,37,053,41,20,11,321,32,21,12,321,36,1*60,1763493602856
NMEA,$GPGSV,3,3,12,26,05,041,46,27,17,097,35,30,23,261,29,48,00,000,43,1*6D,1763493602856
NMEA,$GPGSV,2,1,06,03,22,173,31,04,56,096,35,08,15,129,32,09,74,349,33,8*61,1763493602856
NMEA,$GPGSV,2,2,06,21,12,321,34,27,17,097,31,8*63,1763493602856
NMEA,$GLGSV,1,1,04,12,59,222,41,11,57,029,41,01,78,083,37,08,26,132,47,1*76,1763493602856
NMEA,$GAGSV,2,1,06,02,47,173,39,03,68,066,40,05,21,105,39,08,46,313,39,7*78,1763493602856
NMEA,$GAGSV,2,2,06,16,36,052,42,25,55,076,43,7*77,1763493602856
NMEA,$GAGSV,2,1,05,02,47,173,30,03,68,066,36,08,46,313,30,16,36,052,33,1*71,1763493602856
NMEA,$GAGSV,2,2,05,25,55,076,29,1*4D,1763493602856
NMEA,$GBGSV,1,1,03,19,51,314,43,20,75,157,42,37,51,047,41,3*49,1763493602856
NMEA,$GBGSV,1,1,03,19,51,314,33,20,75,157,31,37,51,047,38,5*42,1763493602856
NMEA,$GNGSA,A,3,03,04,07,08,09,16,20,21,27,30,,,0.7,0.5,0.5,1*37,1763493602861
NMEA,$PSSGR,GSA,A,3,03,04,08,09,21,27,30,,,,,,0.7,0.5,0.5,1,8*41,1763493602861
NMEA,$GNGSA,A,3,75,76,,,,,,,,,,,0.7,0.5,0.5,2*36,1763493602861
NMEA,$GNGSA,A,3,02,03,05,08,15,16,25,,,,,,0.7,0.5,0.5,3*3C,1763493602861
NMEA,$PSSGR,GSA,A,3,302,303,305,308,315,316,325,,,,,,0.7,0.5,0.5,3,1*72,1763493602861
NMEA,$GNGSA,A,3,19,20,32,36,37,,,,,,,,0.7,0.5,0.5,4*39,1763493602861
NMEA,$PSSGR,GSA,A,3,219,220,232,237,,,,,,,,,0.7,0.5,0.5,4,5*45,1763493602861
NMEA,$GNVTG,54.4,T,41.6,M,1.6,N,3.0,K,A*3F,1763493602861
NMEA,$GNDTM,W84,,0000.000000,N,00000.000000,E,0.000,W84*41,1763493602861
NMEA,$GNRMC,192003.00,A,3725.845567,N,12209.349602,W,1.6,54.4,181125,12.8,E,A,V*41,1763493602861
NMEA,$GNGNS,192003.00,3725.845567,N,12209.349602,W,AAAANN,24,0.5,19.1,-32.6,,,V*25,1763493602861
NMEA,$GNGGA,192003.00,3725.845567,N,12209.349602,W,1,12,0.5,19.1,M,-32.6,M,,*70,1763493602861
NMEA,$PSMSG,magcal=PASS,bluesky=0*00,1763493602865
NMEA,$GPGSV,3,1,12,03,22,173,42,04,56,096,38,07,51,276,33,08,15,129,44,1*60,1763493603854
NMEA,$GPGSV,3,2,12,09,74,349,42,11,05,297,31,16,37,053,42,20,11,321,35,1*68,1763493603854
NMEA,$GPGSV,3,3,12,21,12,321,39,26,05,041,44,27,17,097,40,48,00,000,40,1*68,1763493603854
NMEA,$GPGSV,2,1,05,03,22,173,27,04,56,096,37,08,15,129,29,09,74,349,36,8*68,1763493603854
NMEA,$GPGSV,2,2,05,27,17,097,36,8*50,1763493603854
NMEA,$GLGSV,1,1,04,12,59,222,37,11,57,029,40,01,78,083,41,08,26,132,39,1*7E,1763493603854
NMEA,$GAGSV,2,1,06,02,47,173,40,03,68,066,38,05,21,105,44,08,46,313,42,7*7F,1763493603854
NMEA,$GAGSV,2,2,06,16,36,052,38,25,55,076,42,7*7B,1763493603854
NMEA,$GAGSV,1,1,04,05,21,105,30,08,46,313,37,15,08,230,30,25,55,076,36,1*72,1763493603854
NMEA,$GBGSV,1,1,04,19,51,314,35,20,75,157,38,32,18,142,41,37,51,047,40,3*79,1763493603854
NMEA,$GBGSV,1,1,03,19,51,314,38,20,75,157,31,37,51,047,34,5*45,1763493603854
NMEA,$GNGSA,A,3,03,04,07,08,09,16,20,21,27,30,,,0.7,0.4,0.5,1*36,1763493603858
NMEA,$PSSGR,GSA,A,3,03,04,08,09,21,27,30,,,,,,0.7,0.4,0.5,1,8*40,1763493603858
NMEA,$GNGSA,A,3,75,76,,,,,,,,,,,0.7,0.4,0.5,2*37,1763493603858
NMEA,$GNGSA,A,3,02,03,05,08,15,16,25,,,,,,0.7,0.4,0.5,3*3D,1763493603858
NMEA,$PSSGR,GSA,A,3,302,303,305,308,315,316,325,,,,,,0.7,0.4,0.5,3,1*73,1763493603858
NMEA,$GNGSA,A,3,19,20,32,36,37,,,,,,,,0.7,0.4,0.5,4*38,1763493603858
NMEA,$PSSGR,GSA,A,3,219,220,232,237,,,,,,,,,0.7,0.4,0.5,4,5*44,1763493603858
NMEA,$GNVTG,329.7,T,316.9,M,2.9,N,5.4,K,A*35,1763493603858
NMEA,$GNDTM,W84,,0000.000000,N,00000.000000,E,0.000,W84*41,1763493603858
NMEA,$GNRMC,192004.00,A,3725.846173,N,12209.350056,W,2.9,329.7,181125,12.8,E,A,V*7D,1763493603858
NMEA,$GNGNS,192004.00,3725.846173,N,12209.350056,W,AAAANN,24,0.4,19.2,-32.6,,,V*2D,1763493603858
NMEA,$GNGGA,192004.00,3725.846173,N,12209.350056,W,1,12,0.4,19.2,M,-32.6,M,,*78,1763493603858
NMEA,$PSMSG,magcal=PASS,bluesky=0*00,1763493603865
NMEA,$GPGSV,3,1,12,03,22,173,42,04,56,096,35,07,51,276,31,08,15,129,44,1*6F,1763493604857
NMEA,$GPGSV,3,2,12,09,74,349,38,11,05,297,30,16,37,053,41,20,11,321,31,1*63,1763493604857
NMEA,$GPGSV,3,3,12,21,12,321,32,26,05,041,44,27,17,097,42,48,00,000,42,1*63,1763493604857
NMEA,$GPGSV,1,1,04,04,56,096,36,08,15,129,28,09,74,349,38,27,17,097,35,8*6C,1763493604857
NMEA,$GLGSV,1,1,04,12,59,222,39,11,57,029,43,01,78,083,41,08,26,132,39,1*73,1763493604857
NMEA,$GAGSV,2,1,06,02,47,173,41,03,68,066,38,05,21,105,41,08,46,313,39,7*77,1763493604857
NMEA,$GAGSV,2,2,06,16,36,052,37,25,55,076,42,7*74,1763493604857
NMEA,$GAGSV,1,1,03,02,47,173,28,08,46,313,37,25,55,076,38,1*4A,1763493604857
NMEA,$GBGSV,1,1,04,19,51,314,39,20,75,157,36,32,18,142,41,37,51,047,40,3*7B,1763493604857
NMEA,$GBGSV,1,1,03,19,51,314,37,20,75,157,33,37,51,047,34,5*48,1763493604857
NMEA,$GNGSA,A,3,03,04,07,08,09,16,20,21,27,30,,,0.7,0.5,0.5,1*37,1763493604862
NMEA,$PSSGR,GSA,A,3,03,04,08,09,21,27,30,,,,,,0.7,0.5,0.5,1,8*41,1763493604862
NMEA,$GNGSA,A,3,75,76,,,,,,,,,,,0.7,0.5,0.5,2*36,1763493604862
NMEA,$GNGSA,A,3,02,03,05,08,15,16,25,,,,,,0.7,0.5,0.5,3*3C,1763493604862
NMEA,$PSSGR,GSA,A,3,302,303,305,308,315,316,325,,,,,,0.7,0.5,0.5,3,1*72,1763493604862
NMEA,$GNGSA,A,3,19,20,32,36,37,,,,,,,,0.7,0.5,0.5,4*39,1763493604862
NMEA,$PSSGR,GSA,A,3,219,220,232,237,,,,,,,,,0.7,0.5,0.5,4,5*45,1763493604862
NMEA,$GNVTG,323.1,T,310.3,M,2.6,N,4.9,K,A*36,1763493604862
NMEA,$GNDTM,W84,,0000.000000,N,00000.000000,E,0.000,W84*41,1763493604862
NMEA,$GNRMC,192005.00,A,3725.846802,N,12209.350638,W,2.6,323.1,181125,12.8,E,A,V*7E,1763493604862
NMEA,$GNGNS,192005.00,3725.846802,N,12209.350638,W,AAAANN,24,0.5,19.4,-32.6,,,V*2A,1763493604862
NMEA,$GNGGA,192005.00,3725.846802,N,12209.350638,W,1,12,0.5,19.4,M,-32.6,M,,*7F,1763493604862
NMEA,$PSMSG,magcal=PASS,bluesky=0*00,1763493604866
NMEA,$GPGSV,3,1,12,03,22,173,45,04,56,096,33,07,51,276,32,08,15,129,46,1*6F,1763493605861
NMEA,$GPGSV,3,2,12,09,74,349,35,11,05,297,28,16,37,053,44,20,11,321,33,1*60,1763493605861
NMEA,$GPGSV,3,3,12,21,12,321,37,26,05,041,46,27,17,097,43,48,00,000,41,1*66,1763493605861
NMEA,$GPGSV,2,1,05,03,22,173,31,04,56,096,37,09,74,349,40,21,12,321,28,8*69,1763493605861
NMEA,$GPGSV,2,2,05,27,17,097,38,8*5E,1763493605861
NMEA,$GLGSV,1,1,04,12,59,222,39,11,57,029,42,01,78,083,39,08,26,132,36,1*72,1763493605861
NMEA,$GAGSV,2,1,07,02,47,173,41,03,68,066,40,05,21,105,44,08,46,313,38,7*7D,1763493605861
NMEA,$GAGSV,2,2,07,13,14,280,33,16,36,052,40,25,55,076,38,7*45,1763493605861
NMEA,$GAGSV,2,1,06,03,68,066,34,05,21,105,33,08,46,313,38,13,14,280,32,1*74,1763493605861
NMEA,$GAGSV,2,2,06,16,36,052,30,25,55,076,37,1*77,1763493605861
NMEA,$GBGSV,1,1,04,19,51,314,45,20,75,157,40,32,18,142,39,37,51,047,38,3*71,1763493605861
NMEA,$GBGSV,1,1,03,19,51,314,38,20,75,157,32,37,51,047,30,5*42,1763493605861
NMEA,$GNGSA,A,3,03,04,07,08,09,16,20,21,27,30,,,0.7,0.4,0.5,1*36,1763493605865
NMEA,$PSSGR,GSA,A,3,03,04,08,09,21,27,30,,,,,,0.7,0.4,0.5,1,8*40,1763493605865
NMEA,$GNGSA,A,3,75,76,,,,,,,,,,,0.7,0.4,0.5,2*37,1763493605865
NMEA,$GNGSA,A,3,02,03,05,08,13,15,16,25,,,,,0.7,0.4,0.5,3*3F,1763493605865
NMEA,$PSSGR,GSA,A,3,302,303,305,308,313,315,316,325,,,,,0.7,0.4,0.5,3,1*42,1763493605865
NMEA,$GNGSA,A,3,19,20,32,37,,,,,,,,,0.7,0.4,0.5,4*3D,1763493605865
NMEA,$PSSGR,GSA,A,3,219,220,232,237,,,,,,,,,0.7,0.4,0.5,4,5*44,1763493605865
NMEA,$GNVTG,317.8,T,305.0,M,2.4,N,4.4,K,A*30,1763493605865
NMEA,$GNDTM,W84,,0000.000000,N,00000.000000,E,0.000,W84*41,1763493605865
NMEA,$GNRMC,192006.00,A,3725.847316,N,12209.351243,W,2.4,317.8,181125,12.8,E,A,V*77,1763493605865
NMEA,$GNGNS,192006.00,3725.847316,N,12209.351243,W,AAAANN,24,0.4,19.4,-32.6,,,V*2E,1763493605865
NMEA,$GNGGA,192006.00,3725.847316,N,12209.351243,W,1,12,0.4,19.4,M,-32.6,M,,*7B,1763493605865
NMEA,$PSMSG,magcal=PASS,bluesky=0*00,1763493605872
NMEA,$GNGSA,A,3,03,04,07,08,09,16,20,21,27,30,,,0.7,0.4,0.5,1*36,1763493606857
NMEA,$PSSGR,GSA,A,3,03,04,08,09,21,27,30,,,,,,0.7,0.4,0.5,1,8*40,1763493606857
NMEA,$GNGSA,A,3,75,76,,,,,,,,,,,0.7,0.4,0.5,2*37,1763493606857
NMEA,$GNGSA,A,3,02,03,05,08,13,15,16,25,,,,,0.7,0.4,0.5,3*3F,1763493606857
NMEA,$PSSGR,GSA,A,3,302,303,305,308,313,315,316,325,,,,,0.7,0.4,0.5,3,1*42,1763493606857
NMEA,$GNGSA,A,3,19,20,32,37,,,,,,,,,0.7,0.4,0.5,4*3D,1763493606857
NMEA,$PSSGR,GSA,A,3,219,220,232,237,,,,,,,,,0.7,0.4,0.5,4,5*44,1763493606857
NMEA,$GNVTG,325.1,T,312.3,M,2.4,N,4.5,K,E*38,1763493606857
NMEA,$GNDTM,W84,,0000.000000,N,00000.000000,E,0.000,W84*41,1763493606857
NMEA,$GNRMC,192007.00,A,3725.847840,N,12209.351688,W,2.4,325.1,181125,12.8,E,E,V*71,1763493606857
NMEA,$GNGNS,192007.00,3725.847840,N,12209.351688,W,EEEEEE,24,0.4,19.5,-32.6,,,V*25,1763493606857
NMEA,$GNGGA,192007.00,3725.847840,N,12209.351688,W,6,12,0.4,19.5,M,-32.6,M,,*77,1763493606857
NMEA,$PSMSG,magcal=PASS,bluesky=0*00,1763493606861
NMEA,$GPGSV,4,1,15,03,22,173,41,04,56,096,42,06,06,260,27,07,51,276,36,1*6C,1763493607852
NMEA,$GPGSV,4,2,15,08,15,129,43,09,74,349,42,11,05,297,26,16,37,053,43,1*6A,1763493607852
NMEA,$GPGSV,4,3,15,20,11,321,35,21,12,321,42,26,05,041,43,27,17,097,42,1*6D,1763493607852
NMEA,$GPGSV,4,4,15,30,23,261,30,46,00,000,41,48,00,000,40,1*5B,1763493607852
NMEA,$GPGSV,3,1,09,03,22,173,27,04,56,096,28,06,06,260,26,08,15,129,24,8*67,1763493607852
NMEA,$GPGSV,3,2,09,09,74,349,39,21,12,321,30,26,05,041,36,27,17,097,38,8*6F,1763493607852
NMEA,$GPGSV,3,3,09,30,23,261,31,8*51,1763493607852
NMEA,$GLGSV,2,1,05,,00,000,44,12,59,222,40,11,57,029,41,01,78,083,35,1*78,1763493607852
NMEA,$GLGSV,2,2,05,08,26,132,34,1*46,1763493607852
NMEA,$GAGSV,2,1,08,02,47,173,42,03,68,066,40,05,21,105,43,08,46,313,37,7*79,1763493607852
NMEA,$GAGSV,2,2,08,13,14,280,34,16,36,052,41,25,55,076,38,26,03,327,33,7*7D,1763493607852
NMEA,$GAGSV,2,1,07,02,47,173,22,03,68,066,36,05,21,105,35,08,46,313,38,1*79,1763493607852
NMEA,$GAGSV,2,2,07,13,14,280,30,16,36,052,34,25,55,076,33,1*48,1763493607852
NMEA,$GBGSV,2,1,05,37,51,047,40,32,18,142,44,23,03,049,33,20,75,157,41,1*71,1763493607852
NMEA,$GBGSV,2,2,05,19,51,314,44,1*49,1763493607852
NMEA,$GBGSV,2,1,05,19,51,314,37,20,75,157,31,23,03,049,28,32,18,142,30,5*72,1763493607852
NMEA,$GBGSV,2,2,05,37,51,047,26,5*40,1763493607852
NMEA,$GNGSA,A,3,03,04,06,07,08,09,16,20,21,27,30,,0.7,0.4,0.5,1*30,1763493607861
NMEA,$PSSGR,GSA,A,3,03,04,06,08,09,21,27,30,,,,,0.7,0.4,0.5,1,8*46,1763493607861
NMEA,$GNGSA,A,3,75,76,,,,,,,,,,,0.7,0.4,0.5,2*37,1763493607861
NMEA,$GNGSA,A,3,02,03,05,08,13,15,16,25,,,,,0.7,0.4,0.5,3*3F,1763493607861
NMEA,$PSSGR,GSA,A,3,302,303,305,308,313,315,316,325,,,,,0.7,0.4,0.5,3,1*42,1763493607861
NMEA,$GNGSA,A,3,19,20,32,37,,,,,,,,,0.7,0.4,0.5,4*3D,1763493607861
NMEA,$PSSGR,GSA,A,3,219,220,232,237,,,,,,,,,0.7,0.4,0.5,4,5*44,1763493607861
NMEA,$GNVTG,321.5,T,308.7,M,2.2,N,4.0,K,E*34,1763493607861
NMEA,$GNDTM,W84,,0000.000000,N,00000.000000,E,0.000,W84*41,1763493607861
NMEA,$GNRMC,192008.00,A,3725.848333,N,12209.352154,W,2.2,321.5,181125,12.8,E,E,V*7D,1763493607861
NMEA,$GNGNS,192008.00,3725.848333,N,12209.352154,W,EEEEEE,25,0.4,19.3,-32.6,,,V*28,1763493607861
NMEA,$GNGGA,192008.00,3725.848333,N,12209.352154,W,6,12,0.4,19.3,M,-32.6,M,,*7B,1763493607861
NMEA,$PSMSG,magcal=PASS,bluesky=0*00,1763493607866
NMEA,$GPGSV,4,1,16,03,22,173,34,04,56,096,41,06,06,260,23,07,51,276,35,1*69,1763493608857
NMEA,$GPGSV,4,2,16,08,15,129,43,09,74,349,42,11,05,297,26,16,37,053,43,1*69,1763493608857
NMEA,$GPGSV,4,3,16,20,11,321,36,21,12,321,40,26,05,041,43,27,17,097,42,1*6F,1763493608857
NMEA,$GPGSV,4,4,16,30,23,261,32,44,00,000,41,46,00,000,43,48,00,000,42,1*6F,1763493608857
NMEA,$GPGSV,3,1,10,03,22,173,24,04,56,096,29,06,06,260,26,08,15,129,23,8*6A,1763493608857
NMEA,$GPGSV,3,2,10,09,74,349,37,11,05,297,21,21,12,321,32,26,05,041,26,8*66,1763493608857
NMEA,$GPGSV,3,3,10,27,17,097,37,30,23,261,31,8*60,1763493608857
NMEA,$GLGSV,2,1,05,,00,000,43,12,59,222,36,11,57,029,41,01,78,083,34,1*7F,1763493608857
NMEA,$GLGSV,2,2,05,08,26,132,38,1*4A,1763493608857
NMEA,$GAGSV,3,1,09,02,47,173,42,03,68,066,40,05,21,105,44,08,46,313,35,7*7C,1763493608857
NMEA,$GAGSV,3,2,09,13,14,280,30,15,08,230,23,16,36,052,40,25,55,076,38,7*75,1763493608857
NMEA,$GAGSV,3,3,09,26,03,327,31,7*49,1763493608857
NMEA,$GAGSV,2,1,07,02,47,173,22,03,68,066,34,05,21,105,32,08,46,313,36,1*72,1763493608857
NMEA,$GAGSV,2,2,07,13,14,280,32,16,36,052,31,25,55,076,33,1*4F,1763493608857
NMEA,$GBGSV,2,1,05,37,51,047,40,32,18,142,45,23,03,049,35,20,75,157,41,1*76,1763493608857
NMEA,$GBGSV,2,2,05,19,51,314,42,1*4F,1763493608857
NMEA,$GBGSV,2,1,06,19,51,314,36,20,75,157,30,23,03,049,24,32,18,142,31,5*7C,1763493608857
NMEA,$GBGSV,2,2,06,36,15,230,19,37,51,047,26,5*7B,1763493608857
NMEA,$GNGSA,A,3,03,04,06,07,08,09,16,20,21,27,30,,0.7,0.4,0.5,1*30,1763493608869
NMEA,$PSSGR,GSA,A,3,03,04,06,08,09,21,27,30,,,,,0.7,0.4,0.5,1,8*46,1763493608869
NMEA,$GNGSA,A,3,75,76,,,,,,,,,,,0.7,0.4,0.5,2*37,1763493608869
NMEA,$GNGSA,A,3,02,03,05,08,13,15,16,25,,,,,0.7,0.4,0.5,3*3F,1763493608869
NMEA,$PSSGR,GSA,A,3,302,303,305,308,313,315,316,325,,,,,0.7,0.4,0.5,3,1*42,1763493608869
NMEA,$GNGSA,A,3,19,20,32,37,,,,,,,,,0.7,0.4,0.5,4*3D,1763493608869
NMEA,$PSSGR,GSA,A,3,219,220,232,237,,,,,,,,,0.7,0.4,0.5,4,5*44,1763493608869
NMEA,$GNVTG,321.5,T,308.7,M,1.8,N,3.4,K,E*3E,1763493608869
NMEA,$GNDTM,W84,,0000.000000,N,00000.000000,E,0.000,W84*41,1763493608869
NMEA,$GNRMC,192009.00,A,3725.848740,N,12209.352561,W,1.8,321.5,181125,12.8,E,E,V*77,1763493608869
NMEA,$GNGNS,192009.00,3725.848740,N,12209.352561,W,EEEEEE,25,0.4,19.3,-32.6,,,V*2B,1763493608869
NMEA,$GNGGA,192009.00,3725.848740,N,12209.352561,W,6,12,0.4,19.3,M,-32.6,M,,*78,1763493608869
NMEA,$PSMSG,magcal=PASS,bluesky=0*00,1763493608873
NMEA,$GPGSV,4,1,16,03,22,173,32,04,56,096,40,06,06,260,25,07,51,276,38,1*65,1763493609853
NMEA,$GPGSV,4,2,16,08,15,129,39,09,74,349,42,11,05,297,27,16,37,053,43,1*65,1763493609853
NMEA,$GPGSV,4,3,16,20,11,321,37,21,12,321,41,26,05,041,44,27,17,097,38,1*65,1763493609853
NMEA,$GPGSV,4,4,16,30,23,261,36,44,00,000,41,46,00,000,43,48,00,000,41,1*68,1763493609853
NMEA,$GPGSV,3,1,10,03,22,173,26,04,56,096,34,06,06,260,20,08,15,129,27,8*66,1763493609853
NMEA,$GPGSV,3,2,10,09,74,349,36,11,05,297,21,21,12,321,34,26,05,041,31,8*67,1763493609853
NMEA,$GPGSV,3,3,10,27,17,097,30,30,23,261,31,8*67,1763493609853
NMEA,$GLGSV,2,1,05,,00,000,38,12,59,222,37,11,57,029,41,01,78,083,36,1*70,1763493609853
NMEA,$GLGSV,2,2,05,08,26,132,42,1*47,1763493609853
NMEA,$GAGSV,3,1,09,02,47,173,41,03,68,066,39,05,21,105,40,08,46,313,38,7*78,1763493609853
NMEA,$GAGSV,3,2,09,13,14,280,30,15,08,230,23,16,36,052,41,25,55,076,40,7*7B,1763493609853
NMEA,$GAGSV,3,3,09,26,03,327,28,7*41,1763493609853
NMEA,$GAGSV,2,1,07,02,47,173,25,03,68,066,31,05,21,105,25,08,46,313,33,1*73,1763493609853
NMEA,$GAGSV,2,2,07,13,14,280,32,16,36,052,28,25,55,076,29,1*4C,1763493609853
NMEA,$GBGSV,2,1,06,37,51,047,42,36,15,230,26,32,18,142,40,23,03,049,32,1*77,1763493609853
NMEA,$GBGSV,2,2,06,20,75,157,42,19,51,314,41,1*7A,1763493609853
NMEA,$GBGSV,2,1,05,19,51,314,40,20,75,157,41,32,18,142,39,36,15,230,28,3*75,1763493609853
NMEA,$GBGSV,2,2,05,37,51,047,40,3*46,1763493609853
NMEA,$GBGSV,2,1,06,19,51,314,33,20,75,157,28,23,03,049,26,32,18,142,31,5*72,1763493609853
NMEA,$GBGSV,2,2,06,36,15,230,19,37,51,047,34,5*78,1763493609853
NMEA,$GNGSA,A,3,03,04,06,07,08,09,16,20,21,27,30,,0.7,0.4,0.5,1*30,1763493609860
NMEA,$PSSGR,GSA,A,3,03,04,06,08,09,21,27,30,,,,,0.7,0.4,0.5,1,8*46,1763493609860
NMEA,$GNGSA,A,3,75,76,,,,,,,,,,,0.7,0.4,0.5,2*37,1763493609860
NMEA,$GNGSA,A,3,02,03,05,08,13,16,25,,,,,,0.7,0.4,0.5,3*3B,1763493609860
NMEA,$PSSGR,GSA,A,3,302,303,305,308,313,316,325,,,,,,0.7,0.4,0.5,3,1*75,1763493609860
NMEA,$GNGSA,A,3,19,20,32,36,37,,,,,,,,0.7,0.4,0.5,4*38,1763493609860
NMEA,$PSSGR,GSA,A,3,219,220,232,237,,,,,,,,,0.7,0.4,0.5,4,5*44,1763493609860
NMEA,$GNVTG,321.5,T,308.7,M,1.4,N,2.6,K,E*31,1763493609860
NMEA,$GNDTM,W84,,0000.000000,N,00000.000000,E,0.000,W84*41,1763493609860
NMEA,$GNRMC,192010.00,A,3725.849065,N,12209.352870,W,1.4,321.5,181125,12.8,E,E,V*7F,1763493609860
NMEA,$GNGNS,192010.00,3725.849065,N,12209.352870,W,EEEEEE,25,0.4,19.6,-32.6,,,V*2A,1763493609860
NMEA,$GNGGA,192010.00,3725.849065,N,12209.352870,W,6,12,0.4,19.6,M,-32.6,M,,*79,1763493609860
NMEA,$PSMSG,magcal=PASS,bluesky=0*00,1763493609865
NMEA,$GPGSV,4,1,16,03,22,173,36,04,56,096,42,06,06,260,27,07,51,276,40,1*6E,1763493610858
NMEA,$GPGSV,4,2,16,08,15,129,35,09,74,349,43,11,05,297,23,16,37,053,42,1*6D,1763493610858
NMEA,$GPGSV,4,3,16,20,11,321,38,21,12,321,36,26,05,041,33,27,17,097,40,1*65,1763493610858
NMEA,$GPGSV,4,4,16,30,23,261,36,44,00,000,41,46,00,000,39,48,00,000,36,1*65,1763493610858
NMEA,$GPGSV,3,1,10,03,22,173,24,04,56,096,32,06,06,260,26,08,15,129,26,8*65,1763493610858
NMEA,$GPGSV,3,2,10,09,74,349,35,11,05,297,21,21,12,321,27,26,05,041,31,8*66,1763493610858
NMEA,$GPGSV,3,3,10,27,17,097,25,30,23,261,32,8*60,1763493610858
NMEA,$GLGSV,2,1,05,,00,000,34,12,59,222,34,11,57,029,41,01,78,083,38,1*71,1763493610858
NMEA,$GLGSV,2,2,05,08,26,132,37,1*45,1763493610858
NMEA,$GAGSV,3,1,09,02,47,173,35,03,68,066,39,05,21,105,36,08,46,313,38,7*7A,1763493610858
NMEA,$GAGSV,3,2,09,13,14,280,31,15,08,230,23,16,36,052,40,25,55,076,40,7*7B,1763493610858
NMEA,$GAGSV,3,3,09,26,03,327,28,7*41,1763493610858
NMEA,$GAGSV,2,1,07,02,47,173,26,03,68,066,31,05,21,105,31,08,46,313,35,1*73,1763493610858
NMEA,$GAGSV,2,2,07,13,14,280,31,16,36,052,33,25,55,076,30,1*4D,1763493610858
NMEA,$GBGSV,2,1,06,37,51,047,43,36,15,230,25,32,18,142,32,23,03,049,34,1*76,1763493610858
NMEA,$GBGSV,2,2,06,20,75,157,42,19,51,314,40,1*7B,1763493610858
NMEA,$GBGSV,2,1,05,19,51,314,38,20,75,157,41,32,18,142,30,36,15,230,23,3*78,1763493610858
NMEA,$GBGSV,2,2,05,37,51,047,41,3*47,1763493610858
NMEA,$GBGSV,2,1,06,19,51,314,31,20,75,157,29,23,03,049,31,32,18,142,24,5*73,1763493610858
NMEA,$GBGSV,2,2,06,36,15,230,19,37,51,047,30,5*7C,1763493610858
NMEA,$GNGSA,A,3,03,04,06,07,08,09,16,20,21,27,30,,0.7,0.4,0.5,1*30,1763493610867
NMEA,$PSSGR,GSA,A,3,03,04,06,08,09,21,27,30,,,,,0.7,0.4,0.5,1,8*46,1763493610867
NMEA,$GNGSA,A,3,75,76,,,,,,,,,,,0.7,0.4,0.5,2*37,1763493610867
NMEA,$GNGSA,A,3,02,03,05,08,13,16,25,,,,,,0.7,0.4,0.5,3*3B,1763493610867
NMEA,$PSSGR,GSA,A,3,302,303,305,308,313,316,325,,,,,,0.7,0.4,0.5,3,1*75,1763493610867
NMEA,$GNGSA,A,3,19,20,32,36,37,,,,,,,,0.7,0.4,0.5,4*38,1763493610867
NMEA,$PSSGR,GSA,A,3,219,220,232,237,,,,,,,,,0.7,0.4,0.5,4,5*44,1763493610867
NMEA,$GNVTG,,T,,M,0.0,N,0.0,K,E*39,1763493610867
NMEA,$GNDTM,W84,,0000.000000,N,00000.000000,E,0.000,W84*41,1763493610867
NMEA,$GNRMC,192011.00,A,3725.849076,N,12209.352891,W,0.0,,181125,12.8,E,E,V*5D,1763493610867
NMEA,$GNGNS,192011.00,3725.849076,N,12209.352891,W,EEEEEE,25,0.4,19.6,-32.6,,,V*26,1763493610867
NMEA,$GNGGA,192011.00,3725.849076,N,12209.352891,W,6,12,0.4,19.6,M,-32.6,M,,*75,1763493610867
NMEA,$PSMSG,magcal=PASS,bluesky=0*00,1763493610870
NMEA,$GPGSV,4,1,16,03,22,173,35,04,56,096,43,06,06,260,26,07,51,276,43,1*6E,1763493611863
NMEA,$GPGSV,4,2,16,08,15,129,39,09,74,349,42,11,05,297,23,16,37,053,42,1*60,1763493611863
NMEA,$GPGSV,4,3,16,20,11,321,40,21,12,321,38,26,05,041,33,27,17,097,41,1*65,1763493611863
NMEA,$GPGSV,4,4,16,30,23,261,36,44,00,000,41,46,00,000,35,48,00,000,33,1*6C,1763493611863
NMEA,$GPGSV,3,1,10,03,22,173,24,04,56,096,30,06,06,260,26,08,15,129,32,8*62,1763493611863
NMEA,$GPGSV,3,2,10,09,74,349,38,11,05,297,19,21,12,321,28,26,05,041,34,8*6A,1763493611863
NMEA,$GPGSV,3,3,10,27,17,097,36,30,23,261,35,8*65,1763493611863
NMEA,$GLGSV,2,1,05,,00,000,27,12,59,222,32,11,57,029,40,01,78,083,39,1*75,1763493611863
NMEA,$GLGSV,2,2,05,08,26,132,40,1*45,1763493611863
NMEA,$GAGSV,3,1,09,02,47,173,35,03,68,066,42,05,21,105,41,08,46,313,42,7*7B,1763493611863
NMEA,$GAGSV,3,2,09,13,14,280,35,15,08,230,23,16,36,052,40,25,55,076,39,7*71,1763493611863
NMEA,$GAGSV,3,3,09,26,03,327,20,7*49,1763493611863
NMEA,$GAGSV,2,1,07,02,47,173,26,03,68,066,31,05,21,105,33,08,46,313,34,1*70,1763493611863
NMEA,$GAGSV,2,2,07,13,14,280,33,16,36,052,34,25,55,076,30,1*48,1763493611863
NMEA,$GBGSV,2,1,05,37,51,047,44,32,18,142,32,23,03,049,34,20,75,157,40,1*72,1763493611863
NMEA,$GBGSV,2,2,05,19,51,314,45,1*48,1763493611863
NMEA,$GBGSV,2,1,05,19,51,314,43,20,75,157,38,32,18,142,29,36,15,230,25,3*74,1763493611863
NMEA,$GBGSV,2,2,05,37,51,047,39,3*48,1763493611863
NMEA,$GBGSV,2,1,06,19,51,314,34,20,75,157,28,23,03,049,33,32,18,142,24,5*75,1763493611863
NMEA,$GBGSV,2,2,06,36,15,230,19,37,51,047,31,5*7D,1763493611863
NMEA,$GNGSA,A,3,03,04,06,07,08,09,16,20,21,27,30,,0.7,0.4,0.5,1*30,1763493611873
NMEA,$PSSGR,GSA,A,3,03,04,06,08,09,21,27,30,,,,,0.7,0.4,0.5,1,8*46,1763493611873
NMEA,$GNGSA,A,3,75,76,,,,,,,,,,,0.7,0.4,0.5,2*37,1763493611873
NMEA,$GNGSA,A,3,02,03,05,08,13,16,25,,,,,,0.7,0.4,0.5,3*3B,1763493611873
NMEA,$PSSGR,GSA,A,3,302,303,305,308,313,316,325,,,,,,0.7,0.4,0.5,3,1*75,1763493611873
NMEA,$GNGSA,A,3,19,20,32,36,37,,,,,,,,0.7,0.4,0.5,4*38,1763493611873
NMEA,$PSSGR,GSA,A,3,219,220,232,237,,,,,,,,,0.7,0.4,0.5,4,5*44,1763493611873
NMEA,$GNVTG,,T,,M,0.0,N,0.0,K,E*39,1763493611873
NMEA,$GNDTM,W84,,0000.000000,N,00000.000000,E,0.000,W84*41,1763493611873
NMEA,$GNRMC,192012.00,A,3725.849057,N,12209.352879,W,0.0,,181125,12.8,E,E,V*5B,1763493611873
NMEA,$GNGNS,192012.00,3725.849057,N,12209.352879,W,EEEEEE,25,0.4,19.6,-32.6,,,V*20,1763493611873
NMEA,$GNGGA,192012.00,3725.849057,N,12209.352879,W,6,12,0.4,19.6,M,-32.6,M,,*73,1763493611873
NMEA,$PSMSG,magcal=PASS,bluesky=0*00,1763493611876
